start=new Date('2022-04-23T00:00:00.000Z').valueOf();
sats=[{"COUNTRY_CODE":"US","MEAN_MOTION_DDOT":"0.0000000000000","LAUNCH_DATE":"2021-03-14","ARG_OF_PERICENTER":"56.9015","EPHEMERIS_TYPE":"0","SITE":"AFETR","OBJECT_TYPE":"PAYLOAD","ELEMENT_SET_NO":"999","CENTER_NAME":"EARTH","DECAY_DATE":null,"TIME_SYSTEM":"UTC","SEMIMAJOR_AXIS":"6925.305","REV_AT_EPOCH":"6221","MEAN_ANOMALY":"303.2139","ECCENTRICITY":"0.00017160","EPOCH":"2022-04-22T10:44:19.125312","INCLINATION":"53.0529","RCS_SIZE":"LARGE","PERIOD":"95.591","TLE_LINE1":"1 47911U 21021BD  22112.44744358  .00008866  00000-0  61311-3 0  9998","RA_OF_ASC_NODE":"168.8694","MEAN_ELEMENT_THEORY":"SGP4","OBJECT_NAME":"STARLINK-2371","APOAPSIS":"548.359","MEAN_MOTION":"15.06414053","OBJECT_ID":"2021-021BD","FILE":"3411458","TLE_LINE2":"2 47911  53.0529 168.8694 0001716  56.9015 303.2139 15.06414053 62212","GP_ID":"201823336","NORAD_CAT_ID":"47911","REF_FRAME":"TEME","CLASSIFICATION_TYPE":"U","BSTAR":"0.00061311000000","PERIAPSIS":"545.982","MEAN_MOTION_DOT":"0.00008866"},{"ECCENTRICITY":"0.00018210","EPOCH":"2022-04-22T12:20:32.648928","CENTER_NAME":"EARTH","DECAY_DATE":null,"ELEMENT_SET_NO":"999","REV_AT_EPOCH":"6243","MEAN_ANOMALY":"311.4717","SEMIMAJOR_AXIS":"6925.335","TIME_SYSTEM":"UTC","ARG_OF_PERICENTER":"48.6428","OBJECT_TYPE":"PAYLOAD","SITE":"AFETR","EPHEMERIS_TYPE":"0","COUNTRY_CODE":"US","MEAN_MOTION_DDOT":"0.0000000000000","LAUNCH_DATE":"2021-03-14","BSTAR":"0.00013042000000","MEAN_MOTION_DOT":"0.00001662","PERIAPSIS":"545.939","REF_FRAME":"TEME","FILE":"3411458","TLE_LINE2":"2 47912  53.0554 153.5671 0001821  48.6428 311.4717 15.06404353 62439","NORAD_CAT_ID":"47912","GP_ID":"201824587","CLASSIFICATION_TYPE":"U","OBJECT_NAME":"STARLINK-2372","APOAPSIS":"548.461","MEAN_MOTION":"15.06404353","RA_OF_ASC_NODE":"153.5671","MEAN_ELEMENT_THEORY":"SGP4","OBJECT_ID":"2021-021BE","INCLINATION":"53.0554","RCS_SIZE":"LARGE","TLE_LINE1":"1 47912U 21021BE  22112.51426677  .00001662  00000-0  13042-3 0  9993","PERIOD":"95.592"},{"LAUNCH_DATE":"2021-03-14","MEAN_MOTION_DDOT":"0.0000000000000","COUNTRY_CODE":"US","SITE":"AFETR","OBJECT_TYPE":"PAYLOAD","EPHEMERIS_TYPE":"0","ARG_OF_PERICENTER":"38.3665","ELEMENT_SET_NO":"999","DECAY_DATE":null,"CENTER_NAME":"EARTH","SEMIMAJOR_AXIS":"6925.348","TIME_SYSTEM":"UTC","MEAN_ANOMALY":"321.7472","REV_AT_EPOCH":"6246","ECCENTRICITY":"0.00020890","EPOCH":"2022-04-22T13:00:19.651104","RCS_SIZE":"LARGE","INCLINATION":"53.0546","PERIOD":"95.592","TLE_LINE1":"1 47913U 21021BF  22112.54189411  .00000730  00000-0  67888-4 0  9992","MEAN_ELEMENT_THEORY":"SGP4","RA_OF_ASC_NODE":"163.4564","APOAPSIS":"548.660","MEAN_MOTION":"15.06400144","OBJECT_NAME":"STARLINK-2374","OBJECT_ID":"2021-021BF","TLE_LINE2":"2 47913  53.0546 163.4564 0002089  38.3665 321.7472 15.06400144 62467","NORAD_CAT_ID":"47913","GP_ID":"201824837","FILE":"3411458","REF_FRAME":"TEME","CLASSIFICATION_TYPE":"U","BSTAR":"0.00006788800000","PERIAPSIS":"545.766","MEAN_MOTION_DOT":"0.00000730"},{"EPOCH":"2022-04-22T11:20:50.556768","ECCENTRICITY":"0.00018920","SEMIMAJOR_AXIS":"6925.331","TIME_SYSTEM":"UTC","REV_AT_EPOCH":"6244","MEAN_ANOMALY":"311.8430","ELEMENT_SET_NO":"999","CENTER_NAME":"EARTH","DECAY_DATE":null,"ARG_OF_PERICENTER":"48.2720","SITE":"AFETR","OBJECT_TYPE":"PAYLOAD","EPHEMERIS_TYPE":"0","MEAN_MOTION_DDOT":"0.0000000000000","COUNTRY_CODE":"US","LAUNCH_DATE":"2021-03-14","PERIAPSIS":"545.886","MEAN_MOTION_DOT":"0.00001646","BSTAR":"0.00012934000000","CLASSIFICATION_TYPE":"U","FILE":"3411458","TLE_LINE2":"2 47914  53.0537 163.7585 0001892  48.2720 311.8430 15.06405633 62447","GP_ID":"201823586","NORAD_CAT_ID":"47914","REF_FRAME":"TEME","OBJECT_ID":"2021-021BG","RA_OF_ASC_NODE":"163.7585","MEAN_ELEMENT_THEORY":"SGP4","OBJECT_NAME":"STARLINK-2375","MEAN_MOTION":"15.06405633","APOAPSIS":"548.507","PERIOD":"95.592","TLE_LINE1":"1 47914U 21021BG  22112.47280737  .00001646  00000-0  12934-3 0  9996","INCLINATION":"53.0537","RCS_SIZE":"LARGE"},{"LAUNCH_DATE":"2021-03-14","COUNTRY_CODE":"US","MEAN_MOTION_DDOT":"0.0000000000000","SITE":"AFETR","OBJECT_TYPE":"PAYLOAD","EPHEMERIS_TYPE":"0","ARG_OF_PERICENTER":"55.4113","TIME_SYSTEM":"UTC","SEMIMAJOR_AXIS":"6925.361","MEAN_ANOMALY":"304.7022","REV_AT_EPOCH":"6253","ELEMENT_SET_NO":"999","DECAY_DATE":null,"CENTER_NAME":"EARTH","EPOCH":"2022-04-22T12:54:23.626944","ECCENTRICITY":"0.00015450","PERIOD":"95.592","TLE_LINE1":"1 47915U 21021BH  22112.53777346  .00000951  00000-0  82767-4 0  9991","INCLINATION":"53.0545","RCS_SIZE":"LARGE","OBJECT_ID":"2021-021BH","MEAN_ELEMENT_THEORY":"SGP4","RA_OF_ASC_NODE":"158.4743","MEAN_MOTION":"15.06395879","APOAPSIS":"548.296","OBJECT_NAME":"STARLINK-2376","CLASSIFICATION_TYPE":"U","GP_ID":"201823836","TLE_LINE2":"2 47915  53.0545 158.4743 0001545  55.4113 304.7022 15.06395879 62533","NORAD_CAT_ID":"47915","FILE":"3411458","REF_FRAME":"TEME","PERIAPSIS":"546.156","MEAN_MOTION_DOT":"0.00000951","BSTAR":"0.00008276700000"},{"SEMIMAJOR_AXIS":"6925.346","TIME_SYSTEM":"UTC","REV_AT_EPOCH":"6269","MEAN_ANOMALY":"310.1407","ELEMENT_SET_NO":"999","CENTER_NAME":"EARTH","DECAY_DATE":null,"EPOCH":"2022-04-22T09:05:29.828544","ECCENTRICITY":"0.00017750","MEAN_MOTION_DDOT":"0.0000000000000","COUNTRY_CODE":"US","LAUNCH_DATE":"2021-03-14","ARG_OF_PERICENTER":"49.9738","SITE":"AFETR","OBJECT_TYPE":"PAYLOAD","EPHEMERIS_TYPE":"0","CLASSIFICATION_TYPE":"U","FILE":"3411458","TLE_LINE2":"2 47916  53.0536 144.1757 0001775  49.9738 310.1407 15.06400777 62696","GP_ID":"201824088","NORAD_CAT_ID":"47916","REF_FRAME":"TEME","PERIAPSIS":"545.982","MEAN_MOTION_DOT":"0.00000244","BSTAR":"0.00003526800000","PERIOD":"95.592","TLE_LINE1":"1 47916U 21021BJ  22112.37881746  .00000244  00000-0  35268-4 0  9993","INCLINATION":"53.0536","RCS_SIZE":"LARGE","OBJECT_ID":"2021-021BJ","RA_OF_ASC_NODE":"144.1757","MEAN_ELEMENT_THEORY":"SGP4","OBJECT_NAME":"STARLINK-2378","MEAN_MOTION":"15.06400777","APOAPSIS":"548.440"},{"OBJECT_ID":"2021-021BK","OBJECT_NAME":"STARLINK-2397","MEAN_MOTION":"15.06404816","APOAPSIS":"548.362","RA_OF_ASC_NODE":"153.5576","MEAN_ELEMENT_THEORY":"SGP4","TLE_LINE1":"1 47917U 21021BK  22112.51795632  .00003691  00000-0  26649-3 0  9999","PERIOD":"95.592","RCS_SIZE":"LARGE","INCLINATION":"53.0520","MEAN_MOTION_DOT":"0.00003691","PERIAPSIS":"546.036","BSTAR":"0.00026649000000","CLASSIFICATION_TYPE":"U","REF_FRAME":"TEME","FILE":"3411458","TLE_LINE2":"2 47917  53.0520 153.5576 0001679  51.1677 308.9462 15.06404816 62563","NORAD_CAT_ID":"47917","GP_ID":"201824338","ARG_OF_PERICENTER":"51.1677","SITE":"AFETR","OBJECT_TYPE":"PAYLOAD","EPHEMERIS_TYPE":"0","COUNTRY_CODE":"US","MEAN_MOTION_DDOT":"0.0000000000000","LAUNCH_DATE":"2021-03-14","EPOCH":"2022-04-22T12:25:51.426048","ECCENTRICITY":"0.00016790","REV_AT_EPOCH":"6256","MEAN_ANOMALY":"308.9462","SEMIMAJOR_AXIS":"6925.334","TIME_SYSTEM":"UTC","CENTER_NAME":"EARTH","DECAY_DATE":null,"ELEMENT_SET_NO":"999"},{"OBJECT_ID":"2021-021BL","APOAPSIS":"548.420","MEAN_MOTION":"15.06396434","OBJECT_NAME":"STARLINK-2398","MEAN_ELEMENT_THEORY":"SGP4","RA_OF_ASC_NODE":"154.1208","TLE_LINE1":"1 47918U 21021BL  22112.39264104  .00001269  00000-0  10410-3 0  9999","PERIOD":"95.592","RCS_SIZE":"LARGE","INCLINATION":"53.0538","MEAN_MOTION_DOT":"0.00001269","PERIAPSIS":"546.029","BSTAR":"0.00010410000000","CLASSIFICATION_TYPE":"U","REF_FRAME":"TEME","TLE_LINE2":"2 47918  53.0538 154.1208 0001726  47.0608 313.0526 15.06396434 62578","NORAD_CAT_ID":"47918","GP_ID":"201823087","FILE":"3411458","OBJECT_TYPE":"PAYLOAD","SITE":"AFETR","EPHEMERIS_TYPE":"0","ARG_OF_PERICENTER":"47.0608","LAUNCH_DATE":"2021-03-14","COUNTRY_CODE":"US","MEAN_MOTION_DDOT":"0.0000000000000","EPOCH":"2022-04-22T09:25:24.185856","ECCENTRICITY":"0.00017260","MEAN_ANOMALY":"313.0526","REV_AT_EPOCH":"6257","SEMIMAJOR_AXIS":"6925.359","TIME_SYSTEM":"UTC","DECAY_DATE":null,"CENTER_NAME":"EARTH","ELEMENT_SET_NO":"999"},{"EPHEMERIS_TYPE":"0","SITE":"AFETR","OBJECT_TYPE":"PAYLOAD","ARG_OF_PERICENTER":"34.4694","LAUNCH_DATE":"2021-03-14","MEAN_MOTION_DDOT":"0.0000000000000","COUNTRY_CODE":"US","ECCENTRICITY":"0.00023460","EPOCH":"2022-04-22T12:13:55.799904","DECAY_DATE":null,"CENTER_NAME":"EARTH","ELEMENT_SET_NO":"999","MEAN_ANOMALY":"325.6447","REV_AT_EPOCH":"6243","TIME_SYSTEM":"UTC","SEMIMAJOR_AXIS":"6925.319","APOAPSIS":"548.808","MEAN_MOTION":"15.06409738","OBJECT_NAME":"STARLINK-2405","MEAN_ELEMENT_THEORY":"SGP4","RA_OF_ASC_NODE":"163.5766","OBJECT_ID":"2021-021BM","RCS_SIZE":"LARGE","INCLINATION":"53.0531","TLE_LINE1":"1 47919U 21021BM  22112.50967361  .00005597  00000-0  39425-3 0  9993","PERIOD":"95.592","BSTAR":"0.00039425000000","MEAN_MOTION_DOT":"0.00005597","PERIAPSIS":"545.559","REF_FRAME":"TEME","GP_ID":"201823337","TLE_LINE2":"2 47919  53.0531 163.5766 0002346  34.4694 325.6447 15.06409738 62437","NORAD_CAT_ID":"47919","FILE":"3411458","CLASSIFICATION_TYPE":"U"},{"RCS_SIZE":"LARGE","INCLINATION":"53.0558","TLE_LINE1":"1 47977U 21024A   22112.45206967  .00001775  00000-0  13802-3 0  9997","PERIOD":"95.592","APOAPSIS":"548.382","MEAN_MOTION":"15.06403932","OBJECT_NAME":"STARLINK-2087","MEAN_ELEMENT_THEORY":"SGP4","RA_OF_ASC_NODE":"208.8425","OBJECT_ID":"2021-024A","REF_FRAME":"TEME","TLE_LINE2":"2 47977  53.0558 208.8425 0001704  59.7694 300.3464 15.06403932 61092","NORAD_CAT_ID":"47977","GP_ID":"201823593","FILE":"3411458","CLASSIFICATION_TYPE":"U","BSTAR":"0.00013802000000","MEAN_MOTION_DOT":"0.00001775","PERIAPSIS":"546.021","LAUNCH_DATE":"2021-03-24","MEAN_MOTION_DDOT":"0.0000000000000","COUNTRY_CODE":"US","SITE":"AFETR","OBJECT_TYPE":"PAYLOAD","EPHEMERIS_TYPE":"0","ARG_OF_PERICENTER":"59.7694","DECAY_DATE":null,"CENTER_NAME":"EARTH","ELEMENT_SET_NO":"999","MEAN_ANOMALY":"300.3464","REV_AT_EPOCH":"6109","TIME_SYSTEM":"UTC","SEMIMAJOR_AXIS":"6925.337","ECCENTRICITY":"0.00017040","EPOCH":"2022-04-22T10:50:58.819488"}];
